First Name,Last Name,Email,Phone Number,Address,City
John,Doe,user1@example.com,555-100-6789,101 Elm St,Springfield
Jane,Smith,user2@example.com,555-101-6789,102 Elm St,Shelbyville
Tom,Johnson,user3@example.com,555-102-6789,103 Elm St,Centerville
Lisa,Brown,user4@example.com,555-103-6789,104 Elm St,Fairview
Mark,Wilson,user5@example.com,555-104-6789,105 Elm St,Midtown
Emily,Taylor,user6@example.com,555-105-6789,106 Elm St,Hillside
David,Moore,user7@example.com,555-106-6789,107 Elm St,Riverside
Susan,Anderson,user8@example.com,555-107-6789,108 Elm St,Lakeside
James,Thomas,user9@example.com,555-108-6789,109 Elm St,Easton
Linda,Jackson,user10@example.com,555-109-6789,110 Elm St,Westford
Chris,White,user11@example.com,555-110-6789,111 Elm St,Northfield
Karen,Harris,user12@example.com,555-111-6789,112 Elm St,Southport
Brian,Martin,user13@example.com,555-112-6789,113 Elm St,Greenwood
Sarah,Thompson,user14@example.com,555-113-6789,114 Elm St,Mapleton
Matt,Garcia,user15@example.com,555-114-6789,115 Elm St,Brookfield
Jessica,Martinez,user16@example.com,555-115-6789,116 Elm St,Oakwood
Greg,Robinson,user17@example.com,555-116-6789,117 Elm St,Briarwood
Megan,Clark,user18@example.com,555-117-6789,118 Elm St,Edgewood
Nick,Rodriguez,user19@example.com,555-118-6789,119 Elm St,Rosewood
Laura,Lewis,user20@example.com,555-119-6789,120 Elm St,Pineville
Mike,Lee,user21@example.com,555-120-6789,121 Elm St,Sunset
Julie,Walker,user22@example.com,555-121-6789,122 Elm St,Valleyford
Peter,Hall,user23@example.com,555-122-6789,123 Elm St,Bridgeport
Rachel,Allen,user24@example.com,555-123-6789,124 Elm St,Meadowbrook
Andrew,Young,user25@example.com,555-124-6789,125 Elm St,Birchwood
Olivia,Hernandez,user26@example.com,555-125-6789,126 Elm St,Aspen
Adam,King,user27@example.com,555-126-6789,127 Elm St,Cedarville
Sophie,Wright,user28@example.com,555-127-6789,128 Elm St,Foxboro
Kevin,Lopez,user29@example.com,555-128-6789,129 Elm St,Ridgeland
Diana,Hill,user30@example.com,555-129-6789,130 Elm St,Woodcrest
Ryan,Scott,user31@example.com,555-130-6789,131 Elm St,Stonebridge
Amy,Green,user32@example.com,555-131-6789,132 Elm St,Silverlake
Tyler,Adams,user33@example.com,555-132-6789,133 Elm St,Harborview
Hannah,Baker,user34@example.com,555-133-6789,134 Elm St,Parkside
Jake,Nelson,user35@example.com,555-134-6789,135 Elm St,Fernwood
Victoria,Carter,user36@example.com,555-135-6789,136 Elm St,Clearwater
Paul,Mitchell,user37@example.com,555-136-6789,137 Elm St,Northbrook
Natalie,Perez,user38@example.com,555-137-6789,138 Elm St,Grandview
Ethan,Roberts,user39@example.com,555-138-6789,139 Elm St,Lakeshore
Chloe,Turner,user40@example.com,555-139-6789,140 Elm St,Summerset
Kyle,Phillips,user41@example.com,555-140-6789,141 Elm St,Willowbrook
Kelsey,Campbell,user42@example.com,555-141-6789,142 Elm St,Elmgrove
Zach,Parker,user43@example.com,555-142-6789,143 Elm St,Maplehill
Emma,Evans,user44@example.com,555-143-6789,144 Elm St,Ridgeview
Sean,Edwards,user45@example.com,555-144-6789,145 Elm St,Pinehurst
Sophia,Collins,user46@example.com,555-145-6789,146 Elm St,Riverbend
Aaron,Stewart,user47@example.com,555-146-6789,147 Elm St,Sunridge
Grace,Sanchez,user48@example.com,555-147-6789,148 Elm St,Brighton
Derek,Morris,user49@example.com,555-148-6789,149 Elm St,Shady Acres
Lily,Rogers,user50@example.com,555-149-6789,150 Elm St,Westland
